CCSDS_OMM_VERS = 2.0
CREATION_DATE  = 
ORIGINATOR     = 

OBJECT_NAME    = STARLINK-34625
OBJECT_ID      = 2025-240J
CENTER_NAME    = EARTH
REF_FRAME      = TEME
TIME_SYSTEM    = UTC
MEAN_ELEMENT_THEORY = SGP/SGP4

EPOCH          = 2025-11-05T13:11:23.054496
MEAN_MOTION    = 15.79784574
ECCENTRICITY   = .00020126
INCLINATION    = 53.1524
RA_OF_ASC_NODE = 283.5992
ARG_OF_PERICENTER = 46.2655
MEAN_ANOMALY   = 313.8534

EPHEMERIS_TYPE = 0
CLASSIFICATION_TYPE = U
NORAD_CAT_ID   = 66154
ELEMENT_SET_NO = 999
REV_AT_EPOCH   = 297
BSTAR          = -.29676673E-2
MEAN_MOTION_DOT = -.52534E-2
MEAN_MOTION_DDOT = 0

CCSDS_OMM_VERS = 2.0
CREATION_DATE  = 
ORIGINATOR     = 

OBJECT_NAME    = STARLINK-35580
OBJECT_ID      = 2025-240K
CENTER_NAME    = EARTH
REF_FRAME      = TEME
TIME_SYSTEM    = UTC
MEAN_ELEMENT_THEORY = SGP/SGP4

EPOCH          = 2025-11-05T22:17:48.109056
MEAN_MOTION    = 15.79516413
ECCENTRICITY   = .00065573
INCLINATION    = 53.1522
RA_OF_ASC_NODE = 281.6990
ARG_OF_PERICENTER = 165.2335
MEAN_ANOMALY   = 194.8879

EPHEMERIS_TYPE = 0
CLASSIFICATION_TYPE = U
NORAD_CAT_ID   = 66155
ELEMENT_SET_NO = 999
REV_AT_EPOCH   = 298
BSTAR          = .20698059E-2
MEAN_MOTION_DOT = .402012E-2
MEAN_MOTION_DDOT = 0

CCSDS_OMM_VERS = 2.0
CREATION_DATE  = 
ORIGINATOR     = 

OBJECT_NAME    = STARLINK-35621
OBJECT_ID      = 2025-240L
CENTER_NAME    = EARTH
REF_FRAME      = TEME
TIME_SYSTEM    = UTC
MEAN_ELEMENT_THEORY = SGP/SGP4

EPOCH          = 2025-11-05T17:43:31.239264
MEAN_MOTION    = 15.80261346
ECCENTRICITY   = .00038026
INCLINATION    = 53.1522
RA_OF_ASC_NODE = 282.6442
ARG_OF_PERICENTER = 88.1749
MEAN_ANOMALY   = 271.9708

EPHEMERIS_TYPE = 0
CLASSIFICATION_TYPE = U
NORAD_CAT_ID   = 66156
ELEMENT_SET_NO = 999
REV_AT_EPOCH   = 295
BSTAR          = .27774997E-2
MEAN_MOTION_DOT = .569018E-2
MEAN_MOTION_DDOT = 0

CCSDS_OMM_VERS = 2.0
CREATION_DATE  = 
ORIGINATOR     = 

OBJECT_NAME    = STARLINK-35594
OBJECT_ID      = 2025-240M
CENTER_NAME    = EARTH
REF_FRAME      = TEME
TIME_SYSTEM    = UTC
MEAN_ELEMENT_THEORY = SGP/SGP4

EPOCH          = 2025-11-05T11:38:11.870304
MEAN_MOTION    = 15.82009406
ECCENTRICITY   = .00225609
INCLINATION    = 53.1519
RA_OF_ASC_NODE = 283.9053
ARG_OF_PERICENTER = 350.8438
MEAN_ANOMALY   = 9.2170

EPHEMERIS_TYPE = 0
CLASSIFICATION_TYPE = U
NORAD_CAT_ID   = 66157
ELEMENT_SET_NO = 999
REV_AT_EPOCH   = 291
BSTAR          = .35282553E-2
MEAN_MOTION_DOT = .817029E-2
MEAN_MOTION_DDOT = 0

CCSDS_OMM_VERS = 2.0
CREATION_DATE  = 
ORIGINATOR     = 

OBJECT_NAME    = STARLINK-35587
OBJECT_ID      = 2025-240N
CENTER_NAME    = EARTH
REF_FRAME      = TEME
TIME_SYSTEM    = UTC
MEAN_ELEMENT_THEORY = SGP/SGP4

EPOCH          = 2025-11-05T20:44:59.605728
MEAN_MOTION    = 15.78661126
ECCENTRICITY   = .00031412
INCLINATION    = 53.1526
RA_OF_ASC_NODE = 282.0066
ARG_OF_PERICENTER = 359.1053
MEAN_ANOMALY   = 0.9963

EPHEMERIS_TYPE = 0
CLASSIFICATION_TYPE = U
NORAD_CAT_ID   = 66158
ELEMENT_SET_NO = 999
REV_AT_EPOCH   = 297
BSTAR          = -.36330817E-2
MEAN_MOTION_DOT = -.605559E-2
MEAN_MOTION_DDOT = 0

CCSDS_OMM_VERS = 2.0
CREATION_DATE  = 
ORIGINATOR     = 

OBJECT_NAME    = STARLINK-35586
OBJECT_ID      = 2025-240P
CENTER_NAME    = EARTH
REF_FRAME      = TEME
TIME_SYSTEM    = UTC
MEAN_ELEMENT_THEORY = SGP/SGP4

EPOCH          = 2025-11-05T11:37:31.596672
MEAN_MOTION    = 15.79885187
ECCENTRICITY   = .00029834
INCLINATION    = 53.1521
RA_OF_ASC_NODE = 283.9024
ARG_OF_PERICENTER = 9.5450
MEAN_ANOMALY   = 350.5629

EPHEMERIS_TYPE = 0
CLASSIFICATION_TYPE = U
NORAD_CAT_ID   = 66159
ELEMENT_SET_NO = 999
REV_AT_EPOCH   = 291
BSTAR          = -.34848009E-2
MEAN_MOTION_DOT = -.613633E-2
MEAN_MOTION_DDOT = 0

CCSDS_OMM_VERS = 2.0
CREATION_DATE  = 
ORIGINATOR     = 

OBJECT_NAME    = STARLINK-35636
OBJECT_ID      = 2025-240Q
CENTER_NAME    = EARTH
REF_FRAME      = TEME
TIME_SYSTEM    = UTC
MEAN_ELEMENT_THEORY = SGP/SGP4

EPOCH          = 2025-11-05T22:14:36.323520
MEAN_MOTION    = 15.78420088
ECCENTRICITY   = .00028911
INCLINATION    = 53.1522
RA_OF_ASC_NODE = 281.6835
ARG_OF_PERICENTER = 12.5915
MEAN_ANOMALY   = 347.5178

EPHEMERIS_TYPE = 0
CLASSIFICATION_TYPE = U
NORAD_CAT_ID   = 66160
ELEMENT_SET_NO = 999
REV_AT_EPOCH   = 298
BSTAR          = -.34570535E-2
MEAN_MOTION_DOT = -.572123E-2
MEAN_MOTION_DDOT = 0

CCSDS_OMM_VERS = 2.0
CREATION_DATE  = 
ORIGINATOR     = 

OBJECT_NAME    = STARLINK-35635
OBJECT_ID      = 2025-240R
CENTER_NAME    = EARTH
REF_FRAME      = TEME
TIME_SYSTEM    = UTC
MEAN_ELEMENT_THEORY = SGP/SGP4

EPOCH          = 2025-11-05T08:00:03.000384
MEAN_MOTION    = 15.79982736
ECCENTRICITY   = .00009763
INCLINATION    = 53.1522
RA_OF_ASC_NODE = 284.6552
ARG_OF_PERICENTER = 89.0311
MEAN_ANOMALY   = 133.6993

EPHEMERIS_TYPE = 0
CLASSIFICATION_TYPE = U
NORAD_CAT_ID   = 66161
ELEMENT_SET_NO = 999
REV_AT_EPOCH   = 289
BSTAR          = -.86815566E-2
MEAN_MOTION_DOT = -.145623E-1
MEAN_MOTION_DDOT = 0

CCSDS_OMM_VERS = 2.0
CREATION_DATE  = 
ORIGINATOR     = 

OBJECT_NAME    = STARLINK-35633
OBJECT_ID      = 2025-240S
CENTER_NAME    = EARTH
REF_FRAME      = TEME
TIME_SYSTEM    = UTC
MEAN_ELEMENT_THEORY = SGP/SGP4

EPOCH          = 2025-11-05T11:35:55.555296
MEAN_MOTION    = 15.79848408
ECCENTRICITY   = .00028265
INCLINATION    = 53.1518
RA_OF_ASC_NODE = 283.8931
ARG_OF_PERICENTER = 16.1278
MEAN_ANOMALY   = 343.9834

EPHEMERIS_TYPE = 0
CLASSIFICATION_TYPE = U
NORAD_CAT_ID   = 66162
ELEMENT_SET_NO = 999
REV_AT_EPOCH   = 291
BSTAR          = -.32851844E-2
MEAN_MOTION_DOT = -.579747E-2
MEAN_MOTION_DDOT = 0

CCSDS_OMM_VERS = 2.0
CREATION_DATE  = 
ORIGINATOR     = 

OBJECT_NAME    = STARLINK-35607
OBJECT_ID      = 2025-240T
CENTER_NAME    = EARTH
REF_FRAME      = TEME
TIME_SYSTEM    = UTC
MEAN_ELEMENT_THEORY = SGP/SGP4

EPOCH          = 2025-11-05T22:13:28.009632
MEAN_MOTION    = 15.78376225
ECCENTRICITY   = .0000942
INCLINATION    = 53.1521
RA_OF_ASC_NODE = 281.6772
ARG_OF_PERICENTER = 172.7774
MEAN_ANOMALY   = 187.3261

EPHEMERIS_TYPE = 0
CLASSIFICATION_TYPE = U
NORAD_CAT_ID   = 66163
ELEMENT_SET_NO = 999
REV_AT_EPOCH   = 298
BSTAR          = -.33477336E-2
MEAN_MOTION_DOT = -.553757E-2
MEAN_MOTION_DDOT = 0

CCSDS_OMM_VERS = 2.0
CREATION_DATE  = 
ORIGINATOR     = 

OBJECT_NAME    = STARLINK-35614
OBJECT_ID      = 2025-240U
CENTER_NAME    = EARTH
REF_FRAME      = TEME
TIME_SYSTEM    = UTC
MEAN_ELEMENT_THEORY = SGP/SGP4

EPOCH          = 2025-11-05T22:12:26.990496
MEAN_MOTION    = 15.79138552
ECCENTRICITY   = .00044811
INCLINATION    = 53.1520
RA_OF_ASC_NODE = 281.6727
ARG_OF_PERICENTER = 188.0453
MEAN_ANOMALY   = 172.0498

EPHEMERIS_TYPE = 0
CLASSIFICATION_TYPE = U
NORAD_CAT_ID   = 66164
ELEMENT_SET_NO = 999
REV_AT_EPOCH   = 298
BSTAR          = .19445659E-2
MEAN_MOTION_DOT = .369644E-2
MEAN_MOTION_DDOT = 0

CCSDS_OMM_VERS = 2.0
CREATION_DATE  = 
ORIGINATOR     = 

OBJECT_NAME    = STARLINK-35575
OBJECT_ID      = 2025-240V
CENTER_NAME    = EARTH
REF_FRAME      = TEME
TIME_SYSTEM    = UTC
MEAN_ELEMENT_THEORY = SGP/SGP4

EPOCH          = 2025-11-05T11:34:49.658016
MEAN_MOTION    = 15.79817431
ECCENTRICITY   = .00025898
INCLINATION    = 53.1518
RA_OF_ASC_NODE = 283.8896
ARG_OF_PERICENTER = 4.8416
MEAN_ANOMALY   = 355.2631

EPHEMERIS_TYPE = 0
CLASSIFICATION_TYPE = U
NORAD_CAT_ID   = 66165
ELEMENT_SET_NO = 999
REV_AT_EPOCH   = 291
BSTAR          = -.37366964E-2
MEAN_MOTION_DOT = -.652847E-2
MEAN_MOTION_DDOT = 0

CCSDS_OMM_VERS = 2.0
CREATION_DATE  = 
ORIGINATOR     = 

OBJECT_NAME    = STARLINK-35624
OBJECT_ID      = 2025-240W
CENTER_NAME    = EARTH
REF_FRAME      = TEME
TIME_SYSTEM    = UTC
MEAN_ELEMENT_THEORY = SGP/SGP4

EPOCH          = 2025-11-05T10:02:04.715232
MEAN_MOTION    = 15.80402290
ECCENTRICITY   = .00006678
INCLINATION    = 53.1521
RA_OF_ASC_NODE = 284.1972
ARG_OF_PERICENTER = 85.3405
MEAN_ANOMALY   = 274.7694

EPHEMERIS_TYPE = 0
CLASSIFICATION_TYPE = U
NORAD_CAT_ID   = 66166
ELEMENT_SET_NO = 999
REV_AT_EPOCH   = 290
BSTAR          = -.31295993E-3
MEAN_MOTION_DOT = -.60712E-3
MEAN_MOTION_DDOT = 0

CCSDS_OMM_VERS = 2.0
CREATION_DATE  = 
ORIGINATOR     = 

OBJECT_NAME    = STARLINK-35641
OBJECT_ID      = 2025-240X
CENTER_NAME    = EARTH
REF_FRAME      = TEME
TIME_SYSTEM    = UTC
MEAN_ELEMENT_THEORY = SGP/SGP4

EPOCH          = 2025-11-05T22:11:53.528640
MEAN_MOTION    = 15.78326875
ECCENTRICITY   = .00042719
INCLINATION    = 53.1521
RA_OF_ASC_NODE = 281.6686
ARG_OF_PERICENTER = 354.0658
MEAN_ANOMALY   = 6.0312

EPHEMERIS_TYPE = 0
CLASSIFICATION_TYPE = U
NORAD_CAT_ID   = 66167
ELEMENT_SET_NO = 999
REV_AT_EPOCH   = 298
BSTAR          = -.78070393E-3
MEAN_MOTION_DOT = -.135842E-2
MEAN_MOTION_DDOT = 0

CCSDS_OMM_VERS = 2.0
CREATION_DATE  = 
ORIGINATOR     = 

OBJECT_NAME    = STARLINK-35578
OBJECT_ID      = 2025-240Y
CENTER_NAME    = EARTH
REF_FRAME      = TEME
TIME_SYSTEM    = UTC
MEAN_ELEMENT_THEORY = SGP/SGP4

EPOCH          = 2025-11-05T11:31:39.003456
MEAN_MOTION    = 15.79922574
ECCENTRICITY   = .00024518
INCLINATION    = 53.1518
RA_OF_ASC_NODE = 283.8737
ARG_OF_PERICENTER = 179.6687
MEAN_ANOMALY   = 180.4337

EPHEMERIS_TYPE = 0
CLASSIFICATION_TYPE = U
NORAD_CAT_ID   = 66168
ELEMENT_SET_NO = 999
REV_AT_EPOCH   = 291
BSTAR          = -.20903224E-2
MEAN_MOTION_DOT = -.378908E-2
MEAN_MOTION_DDOT = 0

